{"fetched_at":"2026-03-29T16:36:15Z","count":15609,"tles":[{"name":"STARLINK-11645 [DTC]","line1":"1 63316U 25057K   26087.88576255  .00148585  00000+0  11388-2 0  9990","line2":"2 63316  43.0012 149.0917 0000835 296.4203  63.6579 15.70883187 60228","category":"Starlink"}]}